{"type": "FeatureCollection", "features": [ {"type": "Feature", "properties": {"norad_id": 40534, "name": "GPS BIIF-9  (PRN 26)", "group": "gps-ops", "lat": -45.83835663606829, "lon": 161.22132360557848, "alt_km": 20245.368882283576, "timestamp": "2025-12-18T23:35:49.318724+00:00", "meta": {"OBJECT_NAME": "GPS BIIF-9  (PRN 26)", "OBJECT_ID": "2015-013A", "EPOCH": "2025-12-18T13:43:57.304128", "MEAN_MOTION": 2.00562317, "ECCENTRICITY": 0.01072792, "INCLINATION": 53.1969, "RA_OF_ASC_NODE": 211.6486, "ARG_OF_PERICENTER": 38.6162, "MEAN_ANOMALY": 322.2412, "EPHEMERIS_TYPE": 0, "CLASSIFICATION_TYPE": "U", "NORAD_CAT_ID": 40534, "ELEMENT_SET_NO": 999, "REV_AT_EPOCH": 7820, "BSTAR": 0, "MEAN_MOTION_DOT": 8.6e-07, "MEAN_MOTION_DDOT": 0}, "tle": {"line1": "1 40534U 15013A   25352.57219102  .00000086  00000+0  00000+0 0  9992", "line2": "2 40534  53.1969 211.6486 0107279  38.6162 322.2412  2.00562317 78200"}}, "geometry": {"type": "Point", "coordinates": [161.22132360557848, -45.83835663606829]}}, {"type": "Feature", "properties": {"norad_id": 40730, "name": "GPS BIIF-10 (PRN 08)", "group": "gps-ops", "lat": -1.23553221049705, "lon": 95.39608273015142, "alt_km": 20448.89361200225, "timestamp": "2025-12-18T23:35:49.318740+00:00", "meta": {"OBJECT_NAME": "GPS BIIF-10 (PRN 08)", "OBJECT_ID": "2015-033A", "EPOCH": "2025-12-18T05:38:11.905728", "MEAN_MOTION": 2.0056541, "ECCENTRICITY": 0.0111299, "INCLINATION": 54.1258, "RA_OF_ASC_NODE": 274.5468, "ARG_OF_PERICENTER": 26.9435, "MEAN_ANOMALY": 333.656, "EPHEMERIS_TYPE": 0, "CLASSIFICATION_TYPE": "U", "NORAD_CAT_ID": 40730, "ELEMENT_SET_NO": 999, "REV_AT_EPOCH": 7636, "BSTAR": 0, "MEAN_MOTION_DOT": -3.6e-07, "MEAN_MOTION_DDOT": 0}, "tle": {"line1": "1 40730U 15033A   25352.23486002 -.00000036  00000+0  00000+0 0  9996", "line2": "2 40730  54.1258 274.5468 0111299  26.9435 333.6560  2.00565410 76360"}}, "geometry": {"type": "Point", "coordinates": [95.39608273015142, -1.23553221049705]}}, {"type": "Feature", "properties": {"norad_id": 41019, "name": "GPS BIIF-11 (PRN 10)", "group": "gps-ops", "lat": 36.10958698953702, "lon": -170.68406001564296, "alt_km": 20199.471221048138, "timestamp": "2025-12-18T23:35:49.318764+00:00", "meta": {"OBJECT_NAME": "GPS BIIF-11 (PRN 10)", "OBJECT_ID": "2015-062A", "EPOCH": "2025-12-18T07:03:43.989696", "MEAN_MOTION": 2.00567221, "ECCENTRICITY": 0.0110964, "INCLINATION": 56.8362, "RA_OF_ASC_NODE": 37.7874, "ARG_OF_PERICENTER": 230.0867, "MEAN_ANOMALY": 128.9943, "EPHEMERIS_TYPE": 0, "CLASSIFICATION_TYPE": "U", "NORAD_CAT_ID": 41019, "ELEMENT_SET_NO": 999, "REV_AT_EPOCH": 7420, "BSTAR": 0, "MEAN_MOTION_DOT": -6.9e-07, "MEAN_MOTION_DDOT": 0}, "tle": {"line1": "1 41019U 15062A   25352.29425914 -.00000069  00000+0  00000+0 0  9996", "line2": "2 41019  56.8362  37.7874 0110964 230.0867 128.9943  2.00567221 74204"}}, "geometry": {"type": "Point", "coordinates": [-170.68406001564296, 36.10958698953702]}}, {"type": "Feature", "properties": {"norad_id": 41328, "name": "GPS BIIF-12 (PRN 32)", "group": "gps-ops", "lat": 53.23147859417264, "lon": 163.85761729503253, "alt_km": 20415.12856962203, "timestamp": "2025-12-18T23:35:49.318785+00:00", "meta": {"OBJECT_NAME": "GPS BIIF-12 (PRN 32)", "OBJECT_ID": "2016-007A", "EPOCH": "2025-12-18T09:02:43.184544", "MEAN_MOTION": 2.00560483, "ECCENTRICITY": 0.00924431, "INCLINATION": 55.4093, "RA_OF_ASC_NODE": 96.6333, "ARG_OF_PERICENTER": 243.7073, "MEAN_ANOMALY": 115.3258, "EPHEMERIS_TYPE": 0, "CLASSIFICATION_TYPE": "U", "NORAD_CAT_ID": 41328, "ELEMENT_SET_NO": 999, "REV_AT_EPOCH": 7221, "BSTAR": 0, "MEAN_MOTION_DOT": -3.5e-07, "MEAN_MOTION_DDOT": 0}, "tle": {"line1": "1 41328U 16007A   25352.37688871 -.00000035  00000+0  00000+0 0  9994", "line2": "2 41328  55.4093  96.6333 0092443 243.7073 115.3258  2.00560483 72219"}}, "geometry": {"type": "Point", "coordinates": [163.85761729503253, 53.23147859417264]}}, {"type": "Feature", "properties": {"norad_id": 43873, "name": "GPS BIII-1  (PRN 04)", "group": "gps-ops", "lat": -23.09165932235675, "lon": 82.31443143487539, "alt_km": 20258.339021153213, "timestamp": "2025-12-18T23:35:49.318808+00:00", "meta": {"OBJECT_NAME": "GPS BIII-1  (PRN 04)", "OBJECT_ID": "2018-109A", "EPOCH": "2025-12-18T12:57:04.857120", "MEAN_MOTION": 2.00553911, "ECCENTRICITY": 0.0037524, "INCLINATION": 55.5701, "RA_OF_ASC_NODE": 99.3182, "ARG_OF_PERICENTER": 195.2606, "MEAN_ANOMALY": 175.7707, "EPHEMERIS_TYPE": 0, "CLASSIFICATION_TYPE": "U", "NORAD_CAT_ID": 43873, "ELEMENT_SET_NO": 999, "REV_AT_EPOCH": 5145, "BSTAR": 0, "MEAN_MOTION_DOT": -3e-07, "MEAN_MOTION_DDOT": 0}, "tle": {"line1": "1 43873U 18109A   25352.53963955 -.00000030  00000+0  00000+0 0  9998", "line2": "2 43873  55.5701  99.3182 0037524 195.2606 175.7707  2.00553911 51457"}}, "geometry": {"type": "Point", "coordinates": [82.31443143487539, -23.09165932235675]}}, {"type": "Feature", "properties": {"norad_id": 44506, "name": "GPS BIII-2  (PRN 18)", "group": "gps-ops", "lat": -38.502478914581296, "lon": -168.84654657274, "alt_km": 20054.34541409337, "timestamp": "2025-12-18T23:35:49.318821+00:00", "meta": {"OBJECT_NAME": "GPS BIII-2  (PRN 18)", "OBJECT_ID": "2019-056A", "EPOCH": "2025-12-18T07:32:42.973728", "MEAN_MOTION": 2.00566635, "ECCENTRICITY": 0.00577192, "INCLINATION": 55.7194, "RA_OF_ASC_NODE": 338.3313, "ARG_OF_PERICENTER": 198.5145, "MEAN_ANOMALY": 267.0868, "EPHEMERIS_TYPE": 0, "CLASSIFICATION_TYPE": "U", "NORAD_CAT_ID": 44506, "ELEMENT_SET_NO": 999, "REV_AT_EPOCH": 4644, "BSTAR": 0, "MEAN_MOTION_DOT": -8.5e-07, "MEAN_MOTION_DDOT": 0}, "tle": {"line1": "1 44506U 19056A   25352.31438627 -.00000085  00000+0  00000+0 0  9993", "line2": "2 44506  55.7194 338.3313 0057719 198.5145 267.0868  2.00566635 46446"}}, "geometry": {"type": "Point", "coordinates": [-168.84654657274, -38.502478914581296]}}, {"type": "Feature", "properties": {"norad_id": 45854, "name": "GPS BIII-3  (PRN 23)", "group": "gps-ops", "lat": 6.569169698773387, "lon": -148.39954816110415, "alt_km": 20044.38471123144, "timestamp": "2025-12-18T23:35:49.318839+00:00", "meta": {"OBJECT_NAME": "GPS BIII-3  (PRN 23)", "OBJECT_ID": "2020-041A", "EPOCH": "2025-12-18T05:27:58.178880", "MEAN_MOTION": 2.00562003, "ECCENTRICITY": 0.0060605, "INCLINATION": 56.5506, "RA_OF_ASC_NODE": 35.9719, "ARG_OF_PERICENTER": 203.6022, "MEAN_ANOMALY": 143.4254, "EPHEMERIS_TYPE": 0, "CLASSIFICATION_TYPE": "U", "NORAD_CAT_ID": 45854, "ELEMENT_SET_NO": 999, "REV_AT_EPOCH": 4040, "BSTAR": 0, "MEAN_MOTION_DOT": -7e-07, "MEAN_MOTION_DDOT": 0}, "tle": {"line1": "1 45854U 20041A   25352.22775670 -.00000070  00000+0  00000+0 0  9992", "line2": "2 45854  56.5506  35.9719 0060605 203.6022 143.4254  2.00562003 40400"}}, "geometry": {"type": "Point", "coordinates": [-148.39954816110415, 6.569169698773387]}}, {"type": "Feature", "properties": {"norad_id": 46826, "name": "GPS BIII-4  (PRN 14)", "group": "gps-ops", "lat": 29.17705359527717, "lon": 14.17386818742283, "alt_km": 20092.909125304646, "timestamp": "2025-12-18T23:35:49.318852+00:00", "meta": {"OBJECT_NAME": "GPS BIII-4  (PRN 14)", "OBJECT_ID": "2020-078A", "EPOCH": "2025-12-16T01:06:13.902336", "MEAN_MOTION": 2.00566891, "ECCENTRICITY": 0.00647554, "INCLINATION": 54.0145, "RA_OF_ASC_NODE": 218.2068, "ARG_OF_PERICENTER": 203.3828, "MEAN_ANOMALY": 339.3936, "EPHEMERIS_TYPE": 0, "CLASSIFICATION_TYPE": "U", "NORAD_CAT_ID": 46826, "ELEMENT_SET_NO": 999, "REV_AT_EPOCH": 3783, "BSTAR": 0, "MEAN_MOTION_DOT": 6.7e-07, "MEAN_MOTION_DDOT": 0}, "tle": {"line1": "1 46826U 20078A   25350.04599424  .00000067  00000+0  00000+0 0  9996", "line2": "2 46826  54.0145 218.2068 0064755 203.3828 339.3936  2.00566891 37831"}}, "geometry": {"type": "Point", "coordinates": [14.17386818742283, 29.17705359527717]}}, {"type": "Feature", "properties": {"norad_id": 48859, "name": "GPS BIII-5  (PRN 11)", "group": "gps-ops", "lat": -25.091014745809016, "lon": -39.271049332426806, "alt_km": 20192.15273673443, "timestamp": "2025-12-18T23:35:49.318864+00:00", "meta": {"OBJECT_NAME": "GPS BIII-5  (PRN 11)", "OBJECT_ID": "2021-054A", "EPOCH": "2025-12-08T04:14:32.423424", "MEAN_MOTION": 2.00553627, "ECCENTRICITY": 0.0024678, "INCLINATION": 55.2581, "RA_OF_ASC_NODE": 340.1367, "ARG_OF_PERICENTER": 233.3994, "MEAN_ANOMALY": 212.8593, "EPHEMERIS_TYPE": 0, "CLASSIFICATION_TYPE": "U", "NORAD_CAT_ID": 48859, "ELEMENT_SET_NO": 999, "REV_AT_EPOCH": 3292, "BSTAR": 0, "MEAN_MOTION_DOT": -8.6e-07, "MEAN_MOTION_DDOT": 0}, "tle": {"line1": "1 48859U 21054A   25342.17676416 -.00000086  00000+0  00000+0 0  9993", "line2": "2 48859  55.2581 340.1367 0024678 233.3994 212.8593  2.00553627 32922"}}, "geometry": {"type": "Point", "coordinates": [-39.271049332426806, -25.091014745809016]}}, {"type": "Feature", "properties": {"norad_id": 55268, "name": "GPS BIII-6  (PRN 28)", "group": "gps-ops", "lat": 9.112112695952868, "lon": 162.01980377868455, "alt_km": 20172.19437958543, "timestamp": "2025-12-18T23:35:49.318876+00:00", "meta": {"OBJECT_NAME": "GPS BIII-6  (PRN 28)", "OBJECT_ID": "2023-009A", "EPOCH": "2025-12-17T11:51:56.668896", "MEAN_MOTION": 2.00555417, "ECCENTRICITY": 0.00037978, "INCLINATION": 55.1064, "RA_OF_ASC_NODE": 155.6587, "ARG_OF_PERICENTER": 358.2196, "MEAN_ANOMALY": 17.9493, "EPHEMERIS_TYPE": 0, "CLASSIFICATION_TYPE": "U", "NORAD_CAT_ID": 55268, "ELEMENT_SET_NO": 999, "REV_AT_EPOCH": 2160, "BSTAR": 0, "MEAN_MOTION_DOT": 7.7e-07, "MEAN_MOTION_DDOT": 0}, "tle": {"line1": "1 55268U 23009A   25351.49440589  .00000077  00000+0  00000+0 0  9991", "line2": "2 55268  55.1064 155.6587 0003797 358.2196  17.9493  2.00555417 21607"}}, "geometry": {"type": "Point", "coordinates": [162.01980377868455, 9.112112695952868]}}]}